{
    "links": {
        "self": "http://www.neowsapp.com/rest/v1/neo/3989651?api_key=iIulBulltgU6a56xZRHN4H3l9WmuAYTsLGpBGhQ2"
    },
    "id": "3989651",
    "neo_reference_id": "3989651",
    "name": "(2020 CG1)",
    "designation": "2020 CG1",
    "nasa_jpl_url": "http://ssd.jpl.nasa.gov/sbdb.cgi?sstr=3989651",
    "absolute_magnitude_h": 24.053,
    "estimated_diameter": {
        "kilometers": {
            "estimated_diameter_min": 0.0411107099,
            "estimated_diameter_max": 0.091926342
        },
        "meters": {
            "estimated_diameter_min": 41.1107099342,
            "estimated_diameter_max": 91.9263420162
        },
        "miles": {
            "estimated_diameter_min": 0.0255450029,
            "estimated_diameter_max": 0.0571203631
        },
        "feet": {
            "estimated_diameter_min": 134.8776615807,
            "estimated_diameter_max": 301.5956199406
        }
    },
    "is_potentially_hazardous_asteroid": false,
    "close_approach_data": [
        {
            "close_approach_date": "2020-02-23",
            "close_approach_date_full": "2020-Feb-23 07:33",
            "epoch_date_close_approach": 1582443180000,
            "relative_velocity": {
                "kilometers_per_second": "14.3260297443",
                "kilometers_per_hour": "51573.7070796164",
                "miles_per_hour": "32045.8959351094"
            },
            "miss_distance": {
                "astronomical": "0.0595301797",
                "lunar": "23.1572399033",
                "kilometers": "8905588.083837239",
                "miles": "5533675.8353383382"
            },
            "orbiting_body": "Earth"
        }
    ],
    "orbital_data": {
        "orbit_id": "7",
        "orbit_determination_date": "2020-09-22 06:45:41",
        "first_observation_date": "2020-02-01",
        "last_observation_date": "2020-02-25",
        "data_arc_in_days": 24,
        "observations_used": 39,
        "orbit_uncertainty": "8",
        "minimum_orbit_intersection": ".0542273",
        "jupiter_tisserand_invariant": "3.437",
        "epoch_osculation": "2458888.5",
        "eccentricity": ".6016555940428572",
        "semi_major_axis": "2.155382867568261",
        "inclination": "5.935428609176027",
        "ascending_node_longitude": "305.4218642636554",
        "orbital_period": "1155.806324516791",
        "perihelion_distance": ".8585847079916821",
        "perihelion_argument": "262.6219797701411",
        "aphelion_distance": "3.45218102714484",
        "perihelion_time": "2458940.368441422446",
        "mean_anomaly": "343.8444914896213",
        "mean_motion": ".3114708687465486",
        "equinox": "J2000",
        "orbit_class": {
            "orbit_class_type": "APO",
            "orbit_class_description": "Near-Earth asteroid orbits which cross the Earth’s orbit similar to that of 1862 Apollo",
            "orbit_class_range": "a (semi-major axis) > 1.0 AU; q (perihelion) < 1.017 AU"
        }
    },
    "is_sentry_object": false
}